CCSDS_OMM_VERS = 2.0
CREATION_DATE  = 
ORIGINATOR     = 

OBJECT_NAME    = TRANSPORTER-15Y
OBJECT_ID      = 2025-276Y
CENTER_NAME    = EARTH
REF_FRAME      = TEME
TIME_SYSTEM    = UTC
MEAN_ELEMENT_THEORY = SGP/SGP4

EPOCH          = 2025-12-22T18:25:34.101120
MEAN_MOTION    = 15.17077153
ECCENTRICITY   = .0003685
INCLINATION    = 97.4432
RA_OF_ASC_NODE = 68.3512
ARG_OF_PERICENTER = 248.6277
MEAN_ANOMALY   = 111.4563

EPHEMERIS_TYPE = 0
CLASSIFICATION_TYPE = U
NORAD_CAT_ID   = 66688
ELEMENT_SET_NO = 999
REV_AT_EPOCH   = 364
BSTAR          = .49999E-3
MEAN_MOTION_DOT = .9842E-4
MEAN_MOTION_DDOT = 0

CCSDS_OMM_VERS = 2.0
CREATION_DATE  = 
ORIGINATOR     = 

OBJECT_NAME    = TRANSPORTER-15Z
OBJECT_ID      = 2025-276Z
CENTER_NAME    = EARTH
REF_FRAME      = TEME
TIME_SYSTEM    = UTC
MEAN_ELEMENT_THEORY = SGP/SGP4

EPOCH          = 2025-12-22T05:40:55.630272
MEAN_MOTION    = 15.17409240
ECCENTRICITY   = .00047849
INCLINATION    = 97.4421
RA_OF_ASC_NODE = 67.8358
ARG_OF_PERICENTER = 283.8405
MEAN_ANOMALY   = 76.2296

EPHEMERIS_TYPE = 0
CLASSIFICATION_TYPE = U
NORAD_CAT_ID   = 66689
ELEMENT_SET_NO = 999
REV_AT_EPOCH   = 356
BSTAR          = .76723241E-2
MEAN_MOTION_DOT = .156546E-2
MEAN_MOTION_DDOT = 0

CCSDS_OMM_VERS = 2.0
CREATION_DATE  = 
ORIGINATOR     = 

OBJECT_NAME    = TRANSPORTER-15AA
OBJECT_ID      = 2025-276AA
CENTER_NAME    = EARTH
REF_FRAME      = TEME
TIME_SYSTEM    = UTC
MEAN_ELEMENT_THEORY = SGP/SGP4

EPOCH          = 2025-12-22T18:25:39.385344
MEAN_MOTION    = 15.17056426
ECCENTRICITY   = .0003592
INCLINATION    = 97.4391
RA_OF_ASC_NODE = 68.3403
ARG_OF_PERICENTER = 250.8744
MEAN_ANOMALY   = 109.2101

EPHEMERIS_TYPE = 0
CLASSIFICATION_TYPE = U
NORAD_CAT_ID   = 66690
ELEMENT_SET_NO = 999
REV_AT_EPOCH   = 364
BSTAR          = .5126E-3
MEAN_MOTION_DOT = .10086E-3
MEAN_MOTION_DDOT = 0

CCSDS_OMM_VERS = 2.0
CREATION_DATE  = 
ORIGINATOR     = 

OBJECT_NAME    = TRANSPORTER-15AB
OBJECT_ID      = 2025-276AB
CENTER_NAME    = EARTH
REF_FRAME      = TEME
TIME_SYSTEM    = UTC
MEAN_ELEMENT_THEORY = SGP/SGP4

EPOCH          = 2025-12-22T18:22:47.516736
MEAN_MOTION    = 15.17290500
ECCENTRICITY   = .0003817
INCLINATION    = 97.4419
RA_OF_ASC_NODE = 68.3496
ARG_OF_PERICENTER = 250.9056
MEAN_ANOMALY   = 109.1764

EPHEMERIS_TYPE = 0
CLASSIFICATION_TYPE = U
NORAD_CAT_ID   = 66691
ELEMENT_SET_NO = 999
REV_AT_EPOCH   = 364
BSTAR          = .60191E-3
MEAN_MOTION_DOT = .11938E-3
MEAN_MOTION_DDOT = 0

CCSDS_OMM_VERS = 2.0
CREATION_DATE  = 
ORIGINATOR     = 

OBJECT_NAME    = TRANSPORTER-15AC
OBJECT_ID      = 2025-276AC
CENTER_NAME    = EARTH
REF_FRAME      = TEME
TIME_SYSTEM    = UTC
MEAN_ELEMENT_THEORY = SGP/SGP4

EPOCH          = 2025-12-22T18:18:18.771264
MEAN_MOTION    = 15.17397114
ECCENTRICITY   = .0001773
INCLINATION    = 97.4421
RA_OF_ASC_NODE = 68.3574
ARG_OF_PERICENTER = 268.1110
MEAN_ANOMALY   = 91.9920

EPHEMERIS_TYPE = 0
CLASSIFICATION_TYPE = U
NORAD_CAT_ID   = 66692
ELEMENT_SET_NO = 999
REV_AT_EPOCH   = 364
BSTAR          = .33858E-3
MEAN_MOTION_DOT = .6701E-4
MEAN_MOTION_DDOT = 0

CCSDS_OMM_VERS = 2.0
CREATION_DATE  = 
ORIGINATOR     = 

OBJECT_NAME    = TRANSPORTER-15AD
OBJECT_ID      = 2025-276AD
CENTER_NAME    = EARTH
REF_FRAME      = TEME
TIME_SYSTEM    = UTC
MEAN_ELEMENT_THEORY = SGP/SGP4

EPOCH          = 2025-12-22T18:18:26.224128
MEAN_MOTION    = 15.17601477
ECCENTRICITY   = .0003329
INCLINATION    = 97.4374
RA_OF_ASC_NODE = 68.3381
ARG_OF_PERICENTER = 275.7054
MEAN_ANOMALY   = 84.3800

EPHEMERIS_TYPE = 0
CLASSIFICATION_TYPE = U
NORAD_CAT_ID   = 66693
ELEMENT_SET_NO = 999
REV_AT_EPOCH   = 364
BSTAR          = .81359E-3
MEAN_MOTION_DOT = .16313E-3
MEAN_MOTION_DDOT = 0

CCSDS_OMM_VERS = 2.0
CREATION_DATE  = 
ORIGINATOR     = 

OBJECT_NAME    = YAM-9
OBJECT_ID      = 2025-276AE
CENTER_NAME    = EARTH
REF_FRAME      = TEME
TIME_SYSTEM    = UTC
MEAN_ELEMENT_THEORY = SGP/SGP4

EPOCH          = 2025-12-22T14:00:01.999872
MEAN_MOTION    = 15.17511932
ECCENTRICITY   = .00015459
INCLINATION    = 97.4418
RA_OF_ASC_NODE = 68.1797
ARG_OF_PERICENTER = 255.5453
MEAN_ANOMALY   = 214.6311

EPHEMERIS_TYPE = 0
CLASSIFICATION_TYPE = U
NORAD_CAT_ID   = 66694
ELEMENT_SET_NO = 999
REV_AT_EPOCH   = 130
BSTAR          = .44365306E-2
MEAN_MOTION_DOT = .89918E-3
MEAN_MOTION_DDOT = 0

CCSDS_OMM_VERS = 2.0
CREATION_DATE  = 
ORIGINATOR     = 

OBJECT_NAME    = IRIDE FM1
OBJECT_ID      = 2025-276AF
CENTER_NAME    = EARTH
REF_FRAME      = TEME
TIME_SYSTEM    = UTC
MEAN_ELEMENT_THEORY = SGP/SGP4

EPOCH          = 2025-12-22T11:41:07.714176
MEAN_MOTION    = 15.18250193
ECCENTRICITY   = .00011544
INCLINATION    = 97.4405
RA_OF_ASC_NODE = 68.1047
ARG_OF_PERICENTER = 149.1073
MEAN_ANOMALY   = 211.0229

EPHEMERIS_TYPE = 0
CLASSIFICATION_TYPE = U
NORAD_CAT_ID   = 66695
ELEMENT_SET_NO = 999
REV_AT_EPOCH   = 360
BSTAR          = .68819761E-3
MEAN_MOTION_DOT = .14042E-3
MEAN_MOTION_DDOT = 0

CCSDS_OMM_VERS = 2.0
CREATION_DATE  = 
ORIGINATOR     = 

OBJECT_NAME    = IRIDE FM2
OBJECT_ID      = 2025-276AG
CENTER_NAME    = EARTH
REF_FRAME      = TEME
TIME_SYSTEM    = UTC
MEAN_ELEMENT_THEORY = SGP/SGP4

EPOCH          = 2025-12-22T18:19:22.111968
MEAN_MOTION    = 15.17411125
ECCENTRICITY   = .0002546
INCLINATION    = 97.4390
RA_OF_ASC_NODE = 68.3427
ARG_OF_PERICENTER = 269.3958
MEAN_ANOMALY   = 90.6984

EPHEMERIS_TYPE = 0
CLASSIFICATION_TYPE = U
NORAD_CAT_ID   = 66696
ELEMENT_SET_NO = 999
REV_AT_EPOCH   = 364
BSTAR          = .53414E-3
MEAN_MOTION_DOT = .1062E-3
MEAN_MOTION_DDOT = 0

CCSDS_OMM_VERS = 2.0
CREATION_DATE  = 
ORIGINATOR     = 

OBJECT_NAME    = IRIDE FM3
OBJECT_ID      = 2025-276AH
CENTER_NAME    = EARTH
REF_FRAME      = TEME
TIME_SYSTEM    = UTC
MEAN_ELEMENT_THEORY = SGP/SGP4

EPOCH          = 2025-12-22T18:02:24.838368
MEAN_MOTION    = 15.18159988
ECCENTRICITY   = .0001187
INCLINATION    = 97.4391
RA_OF_ASC_NODE = 68.3589
ARG_OF_PERICENTER = 156.6057
MEAN_ANOMALY   = 203.5232

EPHEMERIS_TYPE = 0
CLASSIFICATION_TYPE = U
NORAD_CAT_ID   = 66697
ELEMENT_SET_NO = 999
REV_AT_EPOCH   = 364
BSTAR          = .52409E-3
MEAN_MOTION_DOT = .10645E-3
MEAN_MOTION_DDOT = 0

CCSDS_OMM_VERS = 2.0
CREATION_DATE  = 
ORIGINATOR     = 

OBJECT_NAME    = IRIDE FM4
OBJECT_ID      = 2025-276AJ
CENTER_NAME    = EARTH
REF_FRAME      = TEME
TIME_SYSTEM    = UTC
MEAN_ELEMENT_THEORY = SGP/SGP4

EPOCH          = 2025-12-22T12:00:56.134080
MEAN_MOTION    = 15.16825167
ECCENTRICITY   = .00029084
INCLINATION    = 97.4393
RA_OF_ASC_NODE = 68.0837
ARG_OF_PERICENTER = 201.6428
MEAN_ANOMALY   = 158.4683

EPHEMERIS_TYPE = 0
CLASSIFICATION_TYPE = U
NORAD_CAT_ID   = 66698
ELEMENT_SET_NO = 999
REV_AT_EPOCH   = 360
BSTAR          = -.14231018E-1
MEAN_MOTION_DOT = -.269603E-2
MEAN_MOTION_DDOT = 0

CCSDS_OMM_VERS = 2.0
CREATION_DATE  = 
ORIGINATOR     = 

OBJECT_NAME    = IRIDE FM5
OBJECT_ID      = 2025-276AK
CENTER_NAME    = EARTH
REF_FRAME      = TEME
TIME_SYSTEM    = UTC
MEAN_ELEMENT_THEORY = SGP/SGP4

EPOCH          = 2025-12-22T18:20:20.762880
MEAN_MOTION    = 15.17449090
ECCENTRICITY   = .0002556
INCLINATION    = 97.4403
RA_OF_ASC_NODE = 68.3469
ARG_OF_PERICENTER = 266.3634
MEAN_ANOMALY   = 93.7307

EPHEMERIS_TYPE = 0
CLASSIFICATION_TYPE = U
NORAD_CAT_ID   = 66699
ELEMENT_SET_NO = 999
REV_AT_EPOCH   = 364
BSTAR          = -.12465E-2
MEAN_MOTION_DOT = -.2491E-3
MEAN_MOTION_DDOT = 0

