TRANSPORTER-15Y         
1 66688U 25276Y   25356.76775580  .00009842  00000+0  49999-3 0  9997
2 66688  97.4432  68.3512 0003685 248.6277 111.4563 15.17077153  3649
TRANSPORTER-15Z         
1 66689U 25276Z   25356.23675498  .00156546  00000+0  76723-2 0  9995
2 66689  97.4421  67.8358 0004784 283.8405  76.2296 15.17409240  3563
TRANSPORTER-15AA        
1 66690U 25276AA  25356.76781696  .00010086  00000+0  51260-3 0  9991
2 66690  97.4391  68.3403 0003592 250.8744 109.2101 15.17056426  3649
TRANSPORTER-15AB        
1 66691U 25276AB  25356.76582774  .00011938  00000+0  60191-3 0  9998
2 66691  97.4419  68.3496 0003817 250.9056 109.1764 15.17290500  3647
TRANSPORTER-15AC        
1 66692U 25276AC  25356.76271726  .00006701  00000+0  33858-3 0  9993
2 66692  97.4421  68.3574 0001773 268.1110  91.9920 15.17397114  3640
TRANSPORTER-15AD        
1 66693U 25276AD  25356.76280352  .00016313  00000+0  81359-3 0  9998
2 66693  97.4374  68.3381 0003329 275.7054  84.3800 15.17601477  3647
YAM-9                   
1 66694U 25276AE  25356.58335648  .00089918  00000+0  44365-2 0  9994
2 66694  97.4418  68.1797 0001545 255.5453 214.6311 15.17511932  1305
IRIDE FM1               
1 66695U 25276AF  25356.48689484  .00014042  00000+0  68820-3 0  9993
2 66695  97.4405  68.1047 0001154 149.1073 211.0229 15.18250193  3606
IRIDE FM2               
1 66696U 25276AG  25356.76345037  .00010620  00000+0  53414-3 0  9999
2 66696  97.4390  68.3427 0002546 269.3958  90.6984 15.17411125  3643
IRIDE FM3               
1 66697U 25276AH  25356.75167637  .00010645  00000+0  52409-3 0  9997
2 66697  97.4391  68.3589 0001187 156.6057 203.5232 15.18159988  3640
IRIDE FM4               
1 66698U 25276AJ  25356.50064970 -.00269603  00000+0 -14231-1 0  9998
2 66698  97.4393  68.0837 0002908 201.6428 158.4683 15.16825167  3602
IRIDE FM5               
1 66699U 25276AK  25356.76412920 -.00024910  00000+0 -12465-2 0  9997
2 66699  97.4403  68.3469 0002556 266.3634  93.7307 15.17449090  3641
